[{"OBJECT_NAME":"SCS-01 J","OBJECT_ID":"2025-100J","EPOCH":"2026-03-09T22:31:25.904064","MEAN_MOTION":15.31338011,"ECCENTRICITY":0.00063909,"INCLINATION":97.3693,"RA_OF_ASC_NODE":145.4824,"ARG_OF_PERICENTER":272.025,"MEAN_ANOMALY":88.026,"EPHEMERIS_TYPE":0,"CLASSIFICATION_TYPE":"U","NORAD_CAT_ID":63990,"ELEMENT_SET_NO":999,"REV_AT_EPOCH":4563,"BSTAR":0.0011832888,"MEAN_MOTION_DOT":0.00035886,"MEAN_MOTION_DDOT":0},{"OBJECT_NAME":"STARLINK-35544","OBJECT_ID":"2025-225N","EPOCH":"2026-03-09T11:35:27.559968","MEAN_MOTION":15.30217116,"ECCENTRICITY":0.00015908,"INCLINATION":53.1585,"RA_OF_ASC_NODE":166.8394,"ARG_OF_PERICENTER":149.3151,"MEAN_ANOMALY":210.7943,"EPHEMERIS_TYPE":0,"CLASSIFICATION_TYPE":"U","NORAD_CAT_ID":65922,"ELEMENT_SET_NO":999,"REV_AT_EPOCH":2437,"BSTAR":0.00089130885,"MEAN_MOTION_DOT":0.00026146,"MEAN_MOTION_DDOT":0}]
